{
  "type": "FeatureCollection",
  "features": [
    {
      "type": "Feature",
      "properties": { "name": "Waiyaki Way", "type": "highway" },
      "geometry": {
        "type": "LineString",
        "coordinates": [[36.75, -1.27], [36.78, -1.268], [36.81, -1.275], [36.83, -1.285]]
      }
    },
    {
      "type": "Feature",
      "properties": { "name": "Thika Road", "type": "highway" },
      "geometry": {
        "type": "LineString",
        "coordinates": [[36.83, -1.285], [36.85, -1.26], [36.87, -1.24], [36.89, -1.22]]
      }
    },
    {
      "type": "Feature",
      "properties": { "name": "Mombasa Road", "type": "highway" },
      "geometry": {
        "type": "LineString",
        "coordinates": [[36.83, -1.29], [36.85, -1.31], [36.88, -1.33], [36.91, -1.35]]
      }
    },
    {
      "type": "Feature",
      "properties": { "name": "Langata Road", "type": "highway" },
      "geometry": {
        "type": "LineString",
        "coordinates": [[36.82, -1.29], [36.79, -1.31], [36.76, -1.34], [36.74, -1.37]]
      }
    },
    {
      "type": "Feature",
      "properties": { "name": "Outer Ring Road", "type": "highway" },
      "geometry": {
        "type": "LineString",
        "coordinates": [[36.87, -1.24], [36.86, -1.27], [36.85, -1.30], [36.86, -1.33]]
      }
    }
  ]
}
